{
  "type": "FeatureCollection",
  "name": "heatnet-mini-demo",
  "crs": {
    "type": "name",
    "properties": {
      "name": "urn:ogc:def:crs:OGC:1.3:CRS84"
    }
  },
  "properties": {
    "title": "Мини-набор для локальной разработки",
    "note": "WGS84, район условной Москвы. Замените официальным конкурсным GeoJSON."
  },
  "features": [
    {
      "type": "Feature",
      "id": "SRC-1",
      "geometry": {
        "type": "Point",
        "coordinates": [
          37.5803191,
          55.7434136
        ]
      },
      "properties": {
        "name": "Источник ТЭЦ-демо",
        "id": "SRC-1",
        "feature_type": "source"
      }
    },
    {
      "type": "Feature",
      "id": "TK-1",
      "geometry": {
        "type": "Point",
        "coordinates": [
          37.5803191,
          55.7417966
        ]
      },
      "properties": {
        "name": "ТК-1",
        "next_id": "S-1",
        "id": "TK-1",
        "feature_type": "chamber"
      }
    },
    {
      "type": "Feature",
      "id": "TK-2",
      "geometry": {
        "type": "Point",
        "coordinates": [
          37.5803191,
          55.7403593
        ]
      },
      "properties": {
        "name": "ТК-2",
        "next_id": "S-2",
        "id": "TK-2",
        "feature_type": "chamber"
      }
    },
    {
      "type": "Feature",
      "id": "S-1",
      "geometry": {
        "type": "LineString",
        "coordinates": [
          [
            37.5803191,
            55.7434136
          ],
          [
            37.5803191,
            55.7417966
          ]
        ]
      },
      "properties": {
        "name": "Магистраль к источнику",
        "dn": 250,
        "existing_flow": 40,
        "next_id": "SRC-1",
        "id": "S-1",
        "feature_type": "existing_segment"
      }
    },
    {
      "type": "Feature",
      "id": "S-2",
      "geometry": {
        "type": "LineString",
        "coordinates": [
          [
            37.5803191,
            55.7417966
          ],
          [
            37.5803191,
            55.7403593
          ]
        ]
      },
      "properties": {
        "name": "Участок ТК-1 — ТК-2",
        "dn": 200,
        "existing_flow": 25,
        "next_id": "TK-1",
        "id": "S-2",
        "feature_type": "existing_segment"
      }
    },
    {
      "type": "Feature",
      "id": "S-3",
      "geometry": {
        "type": "LineString",
        "coordinates": [
          [
            37.5803191,
            55.7403593
          ],
          [
            37.5825532,
            55.7403593
          ]
        ]
      },
      "properties": {
        "name": "Ответвление на восток",
        "dn": 150,
        "existing_flow": 12,
        "next_id": "TK-2",
        "id": "S-3",
        "feature_type": "existing_segment"
      }
    },
    {
      "type": "Feature",
      "id": "OKS-A",
      "geometry": {
        "type": "Polygon",
        "coordinates": [
          [
            [
              37.584468,
              55.7425153
            ],
            [
              37.5854255,
              55.7425153
            ],
            [
              37.5854255,
              55.7430543
            ],
            [
              37.584468,
              55.7430543
            ],
            [
              37.584468,
              55.7425153
            ]
          ]
        ]
      },
      "properties": {
        "name": "ЖК Северный",
        "heat_load": 0.85,
        "design_flow": 12.5,
        "id": "OKS-A",
        "feature_type": "oks_prospective"
      }
    },
    {
      "type": "Feature",
      "id": "OKS-B",
      "geometry": {
        "type": "Polygon",
        "coordinates": [
          [
            [
              37.5847872,
              55.7406288
            ],
            [
              37.5857446,
              55.7406288
            ],
            [
              37.5857446,
              55.741078
            ],
            [
              37.5847872,
              55.741078
            ],
            [
              37.5847872,
              55.7406288
            ]
          ]
        ]
      },
      "properties": {
        "name": "Школа на Южной",
        "heat_load": 0.42,
        "design_flow": 7.2,
        "id": "OKS-B",
        "feature_type": "oks_prospective"
      }
    },
    {
      "type": "Feature",
      "id": "CP-A",
      "geometry": {
        "type": "Point",
        "coordinates": [
          37.584468,
          55.7427848
        ]
      },
      "properties": {
        "oks_id": "OKS-A",
        "name": "Точка подключения OKS-A",
        "id": "CP-A",
        "feature_type": "connection_point"
      }
    },
    {
      "type": "Feature",
      "id": "CP-B",
      "geometry": {
        "type": "Point",
        "coordinates": [
          37.5847872,
          55.7408085
        ]
      },
      "properties": {
        "oks_id": "OKS-B",
        "name": "Точка подключения OKS-B",
        "id": "CP-B",
        "feature_type": "connection_point"
      }
    },
    {
      "type": "Feature",
      "id": "BLD-1",
      "geometry": {
        "type": "Polygon",
        "coordinates": [
          [
            [
              37.5814362,
              55.7421559
            ],
            [
              37.5827127,
              55.7421559
            ],
            [
              37.5827127,
              55.7429644
            ],
            [
              37.5814362,
              55.7429644
            ],
            [
              37.5814362,
              55.7421559
            ]
          ]
        ]
      },
      "properties": {
        "name": "Существующий жилой дом",
        "constraint_type": "existing_building",
        "id": "BLD-1",
        "feature_type": "oks_existing"
      }
    },
    {
      "type": "Feature",
      "id": "PARK-1",
      "geometry": {
        "type": "Polygon",
        "coordinates": [
          [
            [
              37.5806383,
              55.7407186
            ],
            [
              37.5817553,
              55.7407186
            ],
            [
              37.5817553,
              55.7413475
            ],
            [
              37.5806383,
              55.7413475
            ],
            [
              37.5806383,
              55.7407186
            ]
          ]
        ]
      },
      "properties": {
        "name": "Сквер",
        "constraint_type": "park",
        "id": "PARK-1",
        "feature_type": "constraint"
      }
    },
    {
      "type": "Feature",
      "id": "ROAD-1",
      "geometry": {
        "type": "Polygon",
        "coordinates": [
          [
            [
              37.58,
              55.7413475
            ],
            [
              37.5863829,
              55.7413475
            ],
            [
              37.5863829,
              55.7415271
            ],
            [
              37.58,
              55.7415271
            ],
            [
              37.58,
              55.7413475
            ]
          ]
        ]
      },
      "properties": {
        "name": "ул. Тепловая",
        "constraint_type": "road",
        "id": "ROAD-1",
        "feature_type": "constraint"
      }
    }
  ]
}
